OBJECT_NAME,OBJECT_ID,EPOCH,MEAN_MOTION,ECCENTRICITY,INCLINATION,RA_OF_ASC_NODE,ARG_OF_PERICENTER,MEAN_ANOMALY,EPHEMERIS_TYPE,CLASSIFICATION_TYPE,NORAD_CAT_ID,ELEMENT_SET_NO,REV_AT_EPOCH,BSTAR,MEAN_MOTION_DOT,MEAN_MOTION_DDOT
FENGYUN 3D,2017-072A,2026-07-07T05:35:00.615264,14.19743400,.0001977,99.0142,163.0182,29.6498,330.4789,0,U,43010,999,44783,.36062E-4,.3E-6,0
NOAA 20 (JPSS-1),2017-073A,2026-07-07T03:50:59.807616,14.19515398,.0001083,98.7773,127.4458,130.6340,229.4930,0,U,43013,999,44730,.45301E-4,.51E-6,0
GOES 17,2018-022A,2026-07-07T03:59:30.530976,1.00271949,.0000608,0.9848,85.3936,59.0324,111.0950,0,U,43226,999,3062,0,-.168E-5,0
SENTINEL-3B,2018-039A,2026-07-07T04:14:28.024800,14.26740486,.0000963,98.6239,255.4214,118.9874,241.1403,0,U,43437,999,42697,.51893E-4,.82E-6,0
FENGYUN 2H,2018-050A,2026-07-07T02:08:50.831808,1.00268684,.0001986,3.0793,78.8473,123.5129,194.1638,0,U,43491,999,2963,0,-.115E-5,0
METOP-C,2018-087A,2026-07-07T03:04:55.451712,14.21517519,.0002193,98.6634,247.3666,104.1105,256.0316,0,U,43689,999,39766,.52843E-4,.72E-6,0
GEO-KOMPSAT-2A,2018-100A,2026-07-07T04:33:38.519424,1.00271247,.0002339,0.0407,147.8345,311.6148,22.3872,0,U,43823,999,2783,0,-.329E-5,0
METEOR-M2 2,2019-038A,2026-07-07T04:40:08.619744,14.24371426,.0001184,98.9159,175.7761,18.9574,341.1648,0,U,44387,999,36414,.43753E-4,.55E-6,0
ARKTIKA-M 1,2021-016A,2026-07-06T10:21:59.496768,2.00615404,.7294925,63.2546,54.8487,270.0174,14.5556,0,U,47719,999,3917,0,-.238E-5,0
FENGYUN 3E,2021-062A,2026-07-07T03:27:06.638976,14.19905767,.0002555,98.7499,191.3295,53.1089,307.0322,0,U,49008,999,25941,.61979E-4,.88E-6,0
GOES 18,2022-021A,2026-07-07T05:09:59.973408,1.00271279,.0000515,0.0027,96.2949,72.8091,56.5731,0,U,51850,999,679,0,.112E-5,0
NOAA 21 (JPSS-2),2022-150A,2026-07-07T02:56:11.611104,14.19540142,.0002622,98.7060,126.5767,118.8091,241.3349,0,U,54234,999,18937,.39725E-4,.4E-6,0
METEOSAT-12 (MTG-I1),2022-170C,2026-07-07T03:28:45.801120,1.00266033,.0003974,0.7164,18.2103,82.5228,236.3817,0,U,54743,999,1317,0,.7E-7,0
TIANMU-1 03,2023-039A,2026-07-07T05:22:39.542592,15.47881197,.0003246,97.5247,2.9864,46.7132,313.4388,0,U,55973,999,18393,.23726E-3,.12257E-3,0
TIANMU-1 04,2023-039B,2026-07-07T03:23:08.092896,15.48497071,.0003749,97.5181,2.0558,41.2183,318.9349,0,U,55974,999,18393,.23885E-3,.1261E-3,0
TIANMU-1 05,2023-039C,2026-07-07T03:23:16.377792,15.47801698,.0003563,97.5227,2.5081,67.0370,293.1256,0,U,55975,999,18390,.22235E-3,.11449E-3,0
TIANMU-1 06,2023-039D,2026-07-07T05:02:53.669760,15.48396594,.0003735,97.5233,3.2361,60.4629,299.6993,0,U,55976,999,18394,.2367E-3,.12451E-3,0
FENGYUN 3G,2023-055A,2026-07-07T04:19:55.767648,15.53539780,.0007224,49.9915,242.9366,20.5057,339.6199,0,U,56232,999,18311,.25701E-3,.16252E-3,0
METEOR-M2 3,2023-091A,2026-07-07T04:38:36.335904,14.24048492,.0005103,98.6077,242.7614,108.1933,251.9802,0,U,57166,999,15736,.99571E-5,-.2E-6,0
TIANMU-1 07,2023-101A,2026-07-07T04:18:30.616992,15.30051701,.0004154,97.2581,238.3901,81.1411,279.0300,0,U,57399,999,16470,.16986E-3,.4867E-4,0
TIANMU-1 08,2023-101B,2026-07-07T03:30:23.783904,15.30056115,.0005245,97.2569,238.1252,66.7814,293.3979,0,U,57400,999,16469,.17049E-3,.4886E-4,0
TIANMU-1 09,2023-101C,2026-07-07T04:40:02.677152,15.30095452,.0004729,97.2527,237.5780,82.8317,277.3461,0,U,57401,999,16470,.17125E-3,.4914E-4,0
TIANMU-1 10,2023-101D,2026-07-07T03:53:58.574400,15.30068312,.0006189,97.2607,238.6176,75.4711,284.7216,0,U,57402,999,16469,.17771E-3,.5099E-4,0
FENGYUN 3F,2023-111A,2026-07-07T04:44:44.099232,14.19942541,.0001412,98.6828,257.8329,80.3691,279.7645,0,U,57490,999,15170,.30441E-4,.21E-6,0
ARKTIKA-M 2,2023-198A,2026-07-06T16:49:25.410720,2.00609243,.6907948,63.2193,152.1833,267.3642,18.7597,0,U,58584,999,1871,0,.205E-5,0
TIANMU-1 11,2023-205A,2026-07-07T04:04:45.421824,15.27208739,.0006892,97.3445,209.4147,298.4441,61.6103,0,U,58645,999,14057,.15759E-3,.4131E-4,0
TIANMU-1 12,2023-205B,2026-07-07T03:23:43.630944,15.27038329,.0005457,97.3434,209.1369,272.3131,87.7484,0,U,58646,999,14055,.16593E-3,.433E-4,0
TIANMU-1 13,2023-205C,2026-07-07T04:11:49.596576,15.27031475,.0005144,97.3462,209.4469,247.8511,112.2182,0,U,58647,999,14055,.16843E-3,.4395E-4,0
TIANMU-1 14,2023-205D,2026-07-07T03:49:41.052288,15.27075001,.0005843,97.3398,208.5979,255.8536,104.2054,0,U,58648,999,14055,.15858E-3,.414E-4,0
TIANMU-1 19,2023-208A,2026-07-07T03:31:16.212288,15.31889940,.0003858,97.4516,304.5542,231.0032,129.0867,0,U,58660,999,14038,.20304E-3,.6173E-4,0
TIANMU-1 20,2023-208B,2026-07-07T04:03:23.779008,15.33079272,.0005751,97.4458,305.2327,245.4775,114.5868,0,U,58661,999,14048,.1946E-3,.6141E-4,0
