FENGYUN 3D              
1 43010U 17072A   26188.23264601  .00000030  00000+0  36062-4 0  9997
2 43010  99.0142 163.0182 0001977  29.6498 330.4789 14.19743400447831
NOAA 20 (JPSS-1)        
1 43013U 17073A   26188.16041444  .00000051  00000+0  45301-4 0  9990
2 43013  98.7773 127.4458 0001083 130.6340 229.4930 14.19515398447307
GOES 17                 
1 43226U 18022A   26188.16632559 -.00000168  00000+0  00000+0 0  9996
2 43226   0.9848  85.3936 0000608  59.0324 111.0950  1.00271949 30620
SENTINEL-3B             
1 43437U 18039A   26188.17671325  .00000082  00000+0  51893-4 0  9998
2 43437  98.6239 255.4214 0000963 118.9874 241.1403 14.26740486426974
FENGYUN 2H              
1 43491U 18050A   26188.08947722 -.00000115  00000+0  00000+0 0  9995
2 43491   3.0793  78.8473 0001986 123.5129 194.1638  1.00268684 29636
METOP-C                 
1 43689U 18087A   26188.12841958  .00000072  00000+0  52843-4 0  9991
2 43689  98.6634 247.3666 0002193 104.1105 256.0316 14.21517519397669
GEO-KOMPSAT-2A          
1 43823U 18100A   26188.19002916 -.00000329  00000+0  00000+0 0  9996
2 43823   0.0407 147.8345 0002339 311.6148  22.3872  1.00271247 27834
METEOR-M2 2             
1 44387U 19038A   26188.19454421  .00000055  00000+0  43753-4 0  9997
2 44387  98.9159 175.7761 0001184  18.9574 341.1648 14.24371426364140
ARKTIKA-M 1             
1 47719U 21016A   26187.43193862 -.00000238  00000+0  00000+0 0  9990
2 47719  63.2546  54.8487 7294925 270.0174  14.5556  2.00615404 39179
FENGYUN 3E              
1 49008U 21062A   26188.14382684  .00000088  00000+0  61979-4 0  9994
2 49008  98.7499 191.3295 0002555  53.1089 307.0322 14.19905767259419
GOES 18                 
1 51850U 22021A   26188.21527747  .00000112  00000+0  00000+0 0  9998
2 51850   0.0027  96.2949 0000515  72.8091  56.5731  1.00271279  6795
NOAA 21 (JPSS-2)        
1 54234U 22150A   26188.12235661  .00000040  00000+0  39725-4 0  9992
2 54234  98.7060 126.5767 0002622 118.8091 241.3349 14.19540142189379
METEOSAT-12 (MTG-I1)    
1 54743U 22170C   26188.14497455  .00000007  00000+0  00000+0 0  9994
2 54743   0.7164  18.2103 0003974  82.5228 236.3817  1.00266033 13171
TIANMU-1 03             
1 55973U 23039A   26188.22406878  .00012257  00000+0  23726-3 0  9997
2 55973  97.5247   2.9864 0003246  46.7132 313.4388 15.47881197183937
TIANMU-1 04             
1 55974U 23039B   26188.14106589  .00012610  00000+0  23885-3 0  9994
2 55974  97.5181   2.0558 0003749  41.2183 318.9349 15.48497071183932
TIANMU-1 05             
1 55975U 23039C   26188.14116178  .00011449  00000+0  22235-3 0  9997
2 55975  97.5227   2.5081 0003563  67.0370 293.1256 15.47801698183909
TIANMU-1 06             
1 55976U 23039D   26188.21034340  .00012451  00000+0  23670-3 0  9994
2 55976  97.5233   3.2361 0003735  60.4629 299.6993 15.48396594183949
FENGYUN 3G              
1 56232U 23055A   26188.18050657  .00016252  00000+0  25701-3 0  9993
2 56232  49.9915 242.9366 0007224  20.5057 339.6199 15.53539780183113
METEOR-M2 3             
1 57166U 23091A   26188.19347611 -.00000020  00000+0  99571-5 0  9995
2 57166  98.6077 242.7614 0005103 108.1933 251.9802 14.24048492157361
TIANMU-1 07             
1 57399U 23101A   26188.17952103  .00004867  00000+0  16986-3 0  9990
2 57399  97.2581 238.3901 0004154  81.1411 279.0300 15.30051701164705
TIANMU-1 08             
1 57400U 23101B   26188.14610861  .00004886  00000+0  17049-3 0  9994
2 57400  97.2569 238.1252 0005245  66.7814 293.3979 15.30056115164692
TIANMU-1 09             
1 57401U 23101C   26188.19447543  .00004914  00000+0  17125-3 0  9992
2 57401  97.2527 237.5780 0004729  82.8317 277.3461 15.30095452164706
TIANMU-1 10             
1 57402U 23101D   26188.16248350  .00005099  00000+0  17771-3 0  9997
2 57402  97.2607 238.6176 0006189  75.4711 284.7216 15.30068312164698
FENGYUN 3F              
1 57490U 23111A   26188.19773263  .00000021  00000+0  30441-4 0  9994
2 57490  98.6828 257.8329 0001412  80.3691 279.7645 14.19942541151703
ARKTIKA-M 2             
1 58584U 23198A   26187.70098855  .00000205  00000+0  00000+0 0  9994
2 58584  63.2193 152.1833 6907948 267.3642  18.7597  2.00609243 18712
TIANMU-1 11             
1 58645U 23205A   26188.16997016  .00004131  00000+0  15759-3 0  9992
2 58645  97.3445 209.4147 0006892 298.4441  61.6103 15.27208739140574
TIANMU-1 12             
1 58646U 23205B   26188.14147721  .00004330  00000+0  16593-3 0  9999
2 58646  97.3434 209.1369 0005457 272.3131  87.7484 15.27038329140554
TIANMU-1 13             
1 58647U 23205C   26188.17487959  .00004395  00000+0  16843-3 0  9992
2 58647  97.3462 209.4469 0005144 247.8511 112.2182 15.27031475140556
TIANMU-1 14             
1 58648U 23205D   26188.15950292  .00004140  00000+0  15858-3 0  9999
2 58648  97.3398 208.5979 0005843 255.8536 104.2054 15.27075001140555
TIANMU-1 19             
1 58660U 23208A   26188.14671542  .00006173  00000+0  20304-3 0  9993
2 58660  97.4516 304.5542 0003858 231.0032 129.0867 15.31889940140384
TIANMU-1 20             
1 58661U 23208B   26188.16902522  .00006141  00000+0  19460-3 0  9997
2 58661  97.4458 305.2327 0005751 245.4775 114.5868 15.33079272140488
